NORAD_CAT_ID,OBJECT_NAME,OBJECT_TYPE,EPOCH,MEAN_MOTION,ECCENTRICITY,INCLINATION,RA_OF_ASC_NODE,ARG_OF_PERICENTER,MEAN_ANOMALY,BSTAR,MEAN_MOTION_DOT,MEAN_MOTION_DDOT,TLE_LINE0,TLE_LINE1,TLE_LINE2,SEMIMAJOR_AXIS,PERIOD,APOGEE,PERIGEE,DECAYED
52307.0,STARLINK-3755,PAYLOAD,2023-01-10 00:33:30,15.08853389,0.0002758,53.213,242.6316,29.8796,330.2353,0.00030035,4.497e-05,0.0,0 STARLINK-3755,1 52307U 22041AY  23010.02326967  .00004497  00000-0  30035-3 0  9995,2 52307  53.2130 242.6316 0002758  29.8796 330.2353 15.08853389 41408,6917.839,95.437,541.612,537.797,0.0
52307.0,STARLINK-3755,PAYLOAD,2023-01-10 08:30:26,15.08851584,0.0002697,53.2126,241.1449,30.6932,329.4217,0.00021948,3.208e-05,0.0,0 STARLINK-3755,1 52307U 22041AY  23010.35446785  .00003208  00000-0  21948-3 0  9994,2 52307  53.2126 241.1449 0002697  30.6932 329.4217 15.08851584 40243,6917.845,95.437,541.576,537.844,0.0
52307.0,STARLINK-3755,PAYLOAD,2023-01-11 08:21:14,15.0883945,0.0004061,53.2129,236.6833,52.3676,307.7685,0.00026511,3.933e-05,0.0,0 STARLINK-3755,1 52307U 22041AY  23011.34807925  .00003933  00000-0  26511-3 0  9997,2 52307  53.2129 236.6833 0004061  52.3676 307.7685 15.08839450 41602,6917.882,95.438,542.556,536.938,0.0
52307.0,STARLINK-3755,PAYLOAD,2023-01-11 21:04:18,15.08843209,0.0003084,53.2126,234.3048,41.7345,318.3882,0.00026131,3.873e-05,0.0,0 STARLINK-3755,1 52307U 22041AY  23011.87799554  .00003873  00000-0  26131-3 0  9994,2 52307  53.2126 234.3048 0003084  41.7345 318.3882 15.08843209 40479,6917.871,95.437,541.869,537.602,0.0
52307.0,STARLINK-3755,PAYLOAD,2023-01-12 16:08:57,15.08830822,0.0002912,53.2123,230.7369,38.2189,321.9009,4.1725e-05,3.75e-06,0.0,0 STARLINK-3755,1 52307U 22041AY  23012.67288313  .00000375  00000-0  41725-4 0  9990,2 52307  53.2123 230.7369 0002912  38.2189 321.9009 15.08830822 41804,6917.908,95.438,541.788,537.759,0.0
52307.0,STARLINK-3755,PAYLOAD,2023-01-12 20:55:06,15.08835584,0.0002772,53.214,229.844,40.9352,319.1848,8.017899999999999e-05,9.88e-06,0.0,0 STARLINK-3755,1 52307U 22041AY  23012.87160157  .00000988  00000-0  80179-4 0  9993,2 52307  53.2140 229.8440 0002772  40.9352 319.1848 15.08835584 40627,6917.894,95.438,541.677,537.841,0.0
52307.0,STARLINK-3755,PAYLOAD,2023-01-13 09:38:11,15.08839362,0.0002852,53.213,227.4649,42.3942,317.72700000000003,8.442e-05,1.055e-05,0.0,0 STARLINK-3755,1 52307U 22041AY  23013.40152203  .00001055  00000-0  84420-4 0  9995,2 52307  53.2130 227.4649 0002852  42.3942 317.7270 15.08839362 40701,6917.882,95.438,541.72,537.774,0.0
52307.0,STARLINK-3755,PAYLOAD,2023-01-13 20:45:53,15.08839065,0.0002529999999999,53.2131,225.3832,36.8022,323.3143,0.00021664,3.161e-05,0.0,0 STARLINK-3755,1 52307U 22041AY  23013.86520288  .00003161  00000-0  21664-3 0  9997,2 52307  53.2131 225.3832 0002530  36.8022 323.3143 15.08839065 40772,6917.883000000001,95.438,541.498,537.998,0.0
52307.0,STARLINK-3755,PAYLOAD,2023-01-13 23:56:39,15.08843603,0.0002631,53.213,224.7883,42.3032,317.8163,0.00015294,2.147e-05,0.0,0 STARLINK-3755,1 52307U 22041AY  23013.99768098  .00002147  00000-0  15294-3 0  9999,2 52307  53.2130 224.7883 0002631  42.3032 317.8163 15.08843603 42006,6917.869000000001,95.437,541.554,537.914,0.0
52307.0,STARLINK-3755,PAYLOAD,2023-01-14 14:15:08,15.08835384,0.0002645,53.2129,222.1115,41.8428,318.2766,9.1848e-05,1.173e-05,0.0,0 STARLINK-3755,1 52307U 22041AY  23014.59384609  .00001173  00000-0  91848-4 0  9996,2 52307  53.2129 222.1115 0002645  41.8428 318.2766 15.08835384 42092,6917.894,95.438,541.589,537.93,0.0
52307.0,STARLINK-3755,PAYLOAD,2023-01-15 14:05:55,15.08835336,0.0002565,53.2128,217.6507,47.74,312.3809,1.3996e-05,-6.6e-07,0.0,0 STARLINK-3755,1 52307U 22041AY  23015.58744744 -.00000066  00000-0  13996-4 0  9995,2 52307  53.2128 217.6507 0002565  47.7400 312.3809 15.08835336 41034,6917.895,95.438,541.534,537.985,0.0
52307.0,STARLINK-3755,PAYLOAD,2023-01-15 20:27:27,15.08839373,0.0002523,53.2132,216.4618,46.5283,313.5918,6.983e-05,8.23e-06,0.0,0 STARLINK-3755,1 52307U 22041AY  23015.85240562  .00000823  00000-0  69830-4 0  9992,2 52307  53.2132 216.4618 0002523  46.5283 313.5918 15.08839373 42286,6917.882,95.438,541.493,538.002,0.0
52307.0,STARLINK-3755,PAYLOAD,2023-01-16 13:56:42,15.08837154,0.0002492,53.2141,213.1908,49.3699,310.751,4.5369e-05,4.34e-06,0.0,0 STARLINK-3755,1 52307U 22041AY  23016.58104897  .00000434  00000-0  45369-4 0  9992,2 52307  53.2141 213.1908 0002492  49.3699 310.7510 15.08837154 41189,6917.889,95.438,541.4780000000001,538.03,0.0
52307.0,STARLINK-3755,PAYLOAD,2023-01-16 21:53:38,15.08841383,0.000249,53.2131,211.7034,49.3859,310.7349,0.00010717,1.418e-05,0.0,0 STARLINK-3755,1 52307U 22041AY  23016.91224745  .00001418  00000-0  10717-3 0  9995,2 52307  53.2131 211.7034 0002490  49.3859 310.7349 15.08841383 42447,6917.876,95.437,541.464,538.019,0.0
52307.0,STARLINK-3755,PAYLOAD,2023-01-17 13:47:29,15.08836112,0.000244,53.2132,208.7297,52.6298,307.4916,0.00010155,1.328e-05,0.0,0 STARLINK-3755,1 52307U 22041AY  23017.57465186  .00001328  00000-0  10155-3 0  9990,2 52307  53.2132 208.7297 0002440  52.6298 307.4916 15.08836112 42542,6917.892,95.438,541.445,538.069,0.0
52307.0,STARLINK-3755,PAYLOAD,2023-01-18 12:02:53,15.08840287,0.0002446,53.213,204.5661,54.3502,305.7717,0.00014347,1.996e-05,0.0,0 STARLINK-3755,1 52307U 22041AY  23018.50201137  .00001996  00000-0  14347-3 0  9996,2 52307  53.2130 204.5661 0002446  54.3502 305.7717 15.08840287 41471,6917.88,95.438,541.437,538.052,0.0
52307.0,STARLINK-3755,PAYLOAD,2023-01-18 19:59:49,15.0884573,0.000246,53.2131,203.0791,55.014,305.1083,0.00017202,2.451e-05,0.0,0 STARLINK-3755,1 52307U 22041AY  23018.83320872  .00002451  00000-0  17202-3 0  9990,2 52307  53.2131 203.0791 0002460  55.0140 305.1083 15.08845730 42730,6917.863,95.437,541.43,538.026,0.0
52307.0,STARLINK-3755,PAYLOAD,2023-01-19 07:07:31,15.08843442,0.0002448,53.2132,200.9979,56.4441,303.6784,6.698899999999999e-05,7.78e-06,0.0,0 STARLINK-3755,1 52307U 22041AY  23019.29688945  .00000778  00000-0  66989-4 0  9996,2 52307  53.2132 200.9979 0002448  56.4441 303.6784 15.08843442 41592,6917.87,95.437,541.428,538.0409999999999,0.0
52307.0,STARLINK-3755,PAYLOAD,2023-01-19 18:15:13,15.08844054,0.0002431,53.2142,198.9154,57.8971,302.2257,0.00013747,1.9e-05,0.0,0 STARLINK-3755,1 52307U 22041AY  23019.76056873  .00001900  00000-0  13747-3 0  9998,2 52307  53.2142 198.9154 0002431  57.8971 302.2257 15.08844054 42871,6917.868,95.437,541.415,538.0509999999999,0.0
52307.0,STARLINK-3755,PAYLOAD,2023-01-20 11:44:27,15.08843062,0.0002465,53.2146,195.6452,59.4223,300.7012,7.1881e-05,8.56e-06,0.0,0 STARLINK-3755,1 52307U 22041AY  23020.48920946  .00000856  00000-0  71881-4 0  9993,2 52307  53.2146 195.6452 0002465  59.4223 300.7012 15.08843062 41773,6917.871,95.437,541.441,538.031,0.0
52307.0,STARLINK-3755,PAYLOAD,2023-01-20 21:16:45,15.08849188,0.0002407,53.2143,193.8601,60.479,299.6442,8.9085e-05,1.13e-05,0.0,0 STARLINK-3755,1 52307U 22041AY  23020.88664349  .00001130  00000-0  89085-4 0  9990,2 52307  53.2143 193.8601 0002407  60.4790 299.6442 15.08849188 43043,6917.852,95.437,541.382,538.052,0.0
52307.0,STARLINK-3755,PAYLOAD,2023-01-21 11:35:15,15.08837013,0.0002428,53.2142,191.1838,62.3878,297.736,2.8819e-05,1.7e-06,0.0,0 STARLINK-3755,1 52307U 22041AY  23021.48281291  .00000170  00000-0  28819-4 0  9999,2 52307  53.2142 191.1838 0002428  62.3878 297.7360 15.08837013 43138,6917.89,95.438,541.434,538.075,0.0
52307.0,STARLINK-3755,PAYLOAD,2023-01-22 17:47:34,15.08844455,0.0002316999999999,53.2147,185.5346,63.6042,296.5188,0.00010146,1.327e-05,0.0,0 STARLINK-3755,1 52307U 22041AY  23022.74136710  .00001327  00000-0  10146-3 0  9992,2 52307  53.2147 185.5346 0002317  63.6042 296.5188 15.08844455 43322,6917.866999999999,95.437,541.335,538.129,0.0
52307.0,STARLINK-3755,PAYLOAD,2023-01-23 11:16:49,15.08832188,0.0002441999999999,53.2144,182.2632,68.3188,291.8064,5.849e-05,6.42e-06,0.0,0 STARLINK-3755,1 52307U 22041AY  23023.47001756  .00000642  00000-0  58490-4 0  9998,2 52307  53.2144 182.2632 0002442  68.3188 291.8064 15.08832188 43436,6917.904,95.438,541.4590000000001,538.08,0.0
52307.0,STARLINK-3755,PAYLOAD,2023-01-24 17:29:08,15.088449800000005,0.0002259,53.2155,176.6126,72.8835,287.2405,0.00010824,1.435e-05,0.0,0 STARLINK-3755,1 52307U 22041AY  23024.72857060  .00001435  00000-0  10824-3 0  9993,2 52307  53.2155 176.6126 0002259  72.8835 287.2405 15.08844980 43620,6917.865,95.437,541.293,538.1669999999999,0.0
52307.0,STARLINK-3755,PAYLOAD,2023-01-25 03:01:27,15.088413199999998,0.0002203,53.2157,174.8288,71.6805,288.4427,2.6238e-05,1.29e-06,0.0,0 STARLINK-3755,1 52307U 22041AY  23025.12601485  .00000129  00000-0  26238-4 0  9992,2 52307  53.2157 174.8288 0002203  71.6805 288.4427 15.08841320 43682,6917.876,95.437,541.265,538.217,0.0
52307.0,STARLINK-3755,PAYLOAD,2023-01-25 09:23:00,15.08831246,0.0002130999999999,53.2157,173.64,76.0995,284.0234,6.7079e-05,7.79e-06,0.0,0 STARLINK-3755,1 52307U 22041AY  23025.39098106  .00000779  00000-0  67079-4 0  9990,2 52307  53.2157 173.6400 0002131  76.0995 284.0234 15.08831246 43723,6917.906999999999,95.438,541.246,538.298,0.0
52307.0,STARLINK-3755,PAYLOAD,2023-01-25 17:19:56,15.08837963,0.0002169,53.2145,172.1526,75.8375,284.2858,4.6839e-05,4.57e-06,0.0,0 STARLINK-3755,1 52307U 22041AY  23025.72217804  .00000457  00000-0  46839-4 0  9999,2 52307  53.2145 172.1526 0002169  75.8375 284.2858 15.08837963 42560,6917.887,95.438,541.252,538.251,0.0
52307.0,STARLINK-3755,PAYLOAD,2023-01-26 02:52:13,15.08874045,0.0001492,53.2154,170.3694,68.3838,291.7313,-0.00039945,-6.646e-05,0.0,0 STARLINK-3755,1 52307U 22041AY  23026.11960271 -.00006646  00000-0 -39945-3 0  9993,2 52307  53.2154 170.3694 0001492  68.3838 291.7313 15.08874045 43837,6917.776,95.435,540.673,538.609,0.0
